OBJECT_NAME,OBJECT_ID,EPOCH,MEAN_MOTION,ECCENTRICITY,INCLINATION,RA_OF_ASC_NODE,ARG_OF_PERICENTER,MEAN_ANOMALY,EPHEMERIS_TYPE,CLASSIFICATION_TYPE,NORAD_CAT_ID,ELEMENT_SET_NO,REV_AT_EPOCH,BSTAR,MEAN_MOTION_DOT,MEAN_MOTION_DDOT
TRANSPORTER-11 OBJECT AU,2024-149AU,2026-05-11T04:59:19.311360,15.39187888,.0004811,97.3725,214.6647,74.8702,285.3076,0,U,60510,999,9662,.23212E-3,.8938E-4,0
FLOCK 4BE-2,2024-149AV,2026-05-11T05:05:43.261728,15.48967107,.0003727,97.3817,217.5712,84.6266,275.5410,0,U,60511,999,9677,.59283E-3,.32039E-3,0
FLOCK 4BE-13,2024-149AW,2026-05-11T05:11:29.923584,15.40892498,.000484,97.3717,215.2740,58.5838,301.5882,0,U,60512,999,9667,.22876E-3,.9318E-4,0
FLOCK 4BE-27,2024-149AX,2026-05-11T03:29:34.007136,15.33800644,.0005367,97.3822,212.9985,83.5157,276.6697,0,U,60513,999,9646,.17423E-3,.5617E-4,0
FLOCK 4BE-9,2024-149AY,2026-05-11T04:30:31.480704,15.39684900,.0004051,97.3788,215.1346,87.1796,272.9914,0,U,60514,999,9662,.27473E-3,.1077E-3,0
FLOCK 4BE-6,2024-149BA,2026-05-11T04:31:38.504640,15.38565107,.0004813,97.3787,214.5604,83.5504,276.6289,0,U,60516,999,9658,.26438E-3,.9987E-4,0
FLOCK 4BE-14,2024-149BB,2026-05-11T04:54:35.248896,15.39852761,.0005635,97.3692,214.6840,80.5101,279.6782,0,U,60517,999,9663,.25517E-3,.10054E-3,0
FLOCK 4BE-1,2024-149BC,2026-05-11T04:37:52.919904,15.41363314,.0005173,97.3777,215.8200,80.3491,279.8340,0,U,60518,999,9667,.26418E-3,.10946E-3,0
FLOCK 4BE-28,2024-149BD,2026-05-11T04:43:37.299072,15.43615325,.0005256,97.3743,216.4358,75.3663,284.8167,0,U,60519,999,9673,.28603E-3,.12791E-3,0
IPERDRONE.0,2024-149BE,2026-05-11T04:44:30.874848,15.61795492,.0001747,97.3772,222.7366,47.8463,312.2943,0,U,60520,999,9713,.48939E-3,.42377E-3,0
TRANSPORTER-11 OBJECT BF,2024-149BF,2026-05-11T05:03:52.229088,15.72249459,.0000467,97.3771,224.6980,354.4890,5.6368,0,U,60521,999,9725,.68814E-3,.91389E-3,0
CONNECTA IOT-2,2024-149BG,2026-05-11T05:01:29.607744,15.23654599,.000817,97.3839,209.9243,95.7321,264.4847,0,U,60522,999,9626,.12312E-3,.2883E-4,0
PTD-R (TYVAK-0127),2024-149BH,2026-05-11T04:30:09.593856,15.87443538,.0001134,97.3759,228.6626,202.2227,157.8995,0,U,60523,999,9753,.5517E-3,.146786E-2,0
CONNECTA IOT-4,2024-149BJ,2026-05-11T04:54:12.002112,15.40787067,.0006297,97.3793,215.1784,72.9580,287.2356,0,U,60524,999,9663,.27087E-3,.11015E-3,0
ORESAT0.5,2024-149BK,2026-05-11T04:26:38.584320,15.43703035,.0006297,97.3717,216.6617,63.6633,296.5261,0,U,60525,999,9676,.28281E-3,.12686E-3,0
DEIMOS,2024-149BL,2026-05-11T04:44:46.497696,15.42912705,.0006428,97.3776,216.8314,68.9947,291.1988,0,U,60526,999,9674,.28566E-3,.12478E-3,0
CUAVA-2,2024-149BM,2026-05-11T04:51:05.545728,15.35263435,.0007914,97.3724,212.6844,72.1530,288.0576,0,U,60527,999,9649,.22521E-3,.7637E-4,0
ERNST,2024-149BN,2026-05-11T03:59:17.774880,15.38229641,.000732,97.3803,214.6382,76.0573,284.1485,0,U,60528,999,9658,.24456E-3,.9135E-4,0
TORO,2024-149BQ,2026-05-11T04:38:22.334784,14.96284076,.000159,97.6790,206.5542,94.6937,265.4466,0,U,60530,999,9442,.75232E-4,.793E-5,0
HYPSO-2,2024-149BR,2026-05-11T05:05:37.618944,14.98603058,.0002069,97.6817,208.0143,113.7205,246.4235,0,U,60531,999,9451,.14181E-3,.1642E-4,0
LEMU NGE,2024-149BS,2026-05-11T04:03:22.679136,14.94798747,.0002537,97.6847,206.8794,115.0080,245.1404,0,U,60532,999,9442,.14093E-3,.1477E-4,0
LEMUR-2-STELLA,2024-149BT,2026-05-11T04:54:32.694912,15.10992966,.0001968,97.6730,213.5242,123.3005,236.8414,0,U,60533,999,9491,.37789E-3,.6246E-4,0
SATELIOT_2,2024-149BU,2026-05-11T04:17:37.849056,14.96224362,.0001365,97.6835,206.8124,107.7956,252.3414,0,U,60534,999,9443,.78145E-4,.825E-5,0
NIGHTJAR,2024-149BV,2026-05-11T05:00:44.576928,14.98797242,.0001128,97.6833,208.4342,158.7125,201.4145,0,U,60535,999,13733,.1505E-3,.1755E-4,0
LEMUR-2-MARHISYAM,2024-149BW,2026-05-11T04:07:33.455136,15.10482035,.0001395,97.6873,213.9012,201.7383,158.3787,0,U,60536,999,9489,.4351E-3,.71E-4,0
SATELIOT_4,2024-149BX,2026-05-11T04:44:13.880832,14.96529600,.0002888,97.6738,206.3834,134.4340,225.7118,0,U,60537,999,9444,.98111E-4,.1058E-4,0
ICEYE-X43,2024-149BZ,2026-05-11T04:46:46.871904,14.99740580,.0004301,97.6770,208.6749,205.7322,154.3687,0,U,60539,999,9457,.13624E-3,.1624E-4,0
HAWK-10A,2024-149CA,2026-05-11T04:37:13.044576,14.96396022,.000335,97.6897,207.7415,172.7205,187.4065,0,U,60540,999,9445,.46519E-4,.47E-5,0
UMBRA-09,2024-149CB,2026-05-11T04:56:00.953376,15.16912239,.0001465,97.6957,217.8155,136.0414,224.0935,0,U,60541,999,9511,.46703E-3,.914E-4,0
