TRANSPORTER-11 OBJECT AU
1 60510U 24149AU  26131.20786240  .00008938  00000+0  23212-3 0  9994
2 60510  97.3725 214.6647 0004811  74.8702 285.3076 15.39187888 96621
FLOCK 4BE-2             
1 60511U 24149AV  26131.21230627  .00032039  00000+0  59283-3 0  9995
2 60511  97.3817 217.5712 0003727  84.6266 275.5410 15.48967107 96777
FLOCK 4BE-13            
1 60512U 24149AW  26131.21631856  .00009318  00000+0  22876-3 0  9997
2 60512  97.3717 215.2740 0004840  58.5838 301.5882 15.40892498 96679
FLOCK 4BE-27            
1 60513U 24149AX  26131.14553249  .00005617  00000+0  17423-3 0  9999
2 60513  97.3822 212.9985 0005367  83.5157 276.6697 15.33800644 96466
FLOCK 4BE-9             
1 60514U 24149AY  26131.18786436  .00010770  00000+0  27473-3 0  9992
2 60514  97.3788 215.1346 0004051  87.1796 272.9914 15.39684900 96622
FLOCK 4BE-6             
1 60516U 24149BA  26131.18864010  .00009987  00000+0  26438-3 0  9997
2 60516  97.3787 214.5604 0004813  83.5504 276.6289 15.38565107 96583
FLOCK 4BE-14            
1 60517U 24149BB  26131.20457464  .00010054  00000+0  25517-3 0  9996
2 60517  97.3692 214.6840 0005635  80.5101 279.6782 15.39852761 96638
FLOCK 4BE-1             
1 60518U 24149BC  26131.19297361  .00010946  00000+0  26418-3 0  9994
2 60518  97.3777 215.8200 0005173  80.3491 279.8340 15.41363314 96673
FLOCK 4BE-28            
1 60519U 24149BD  26131.19695948  .00012791  00000+0  28603-3 0  9996
2 60519  97.3743 216.4358 0005256  75.3663 284.8167 15.43615325 96739
IPERDRONE.0             
1 60520U 24149BE  26131.19757957  .00042377  00000+0  48939-3 0  9994
2 60520  97.3772 222.7366 0001747  47.8463 312.2943 15.61795492 97132
TRANSPORTER-11 OBJECT BF
1 60521U 24149BF  26131.21102117  .00091389  00000+0  68814-3 0  9991
2 60521  97.3771 224.6980 0000467 354.4890   5.6368 15.72249459 97250
CONNECTA IOT-2          
1 60522U 24149BG  26131.20937046  .00002883  00000+0  12312-3 0  9991
2 60522  97.3839 209.9243 0008170  95.7321 264.4847 15.23654599 96265
PTD-R (TYVAK-0127)      
1 60523U 24149BH  26131.18761104  .00146786  00000+0  55170-3 0  9999
2 60523  97.3759 228.6626 0001134 202.2227 157.8995 15.87443538 97532
CONNECTA IOT-4          
1 60524U 24149BJ  26131.20430558  .00011015  00000+0  27087-3 0  9991
2 60524  97.3793 215.1784 0006297  72.9580 287.2356 15.40787067 96632
ORESAT0.5               
1 60525U 24149BK  26131.18516880  .00012686  00000+0  28281-3 0  9994
2 60525  97.3717 216.6617 0006297  63.6633 296.5261 15.43703035 96764
DEIMOS                  
1 60526U 24149BL  26131.19776039  .00012478  00000+0  28566-3 0  9995
2 60526  97.3776 216.8314 0006428  68.9947 291.1988 15.42912705 96748
CUAVA-2                 
1 60527U 24149BM  26131.20214752  .00007637  00000+0  22521-3 0  9993
2 60527  97.3724 212.6844 0007914  72.1530 288.0576 15.35263435 96491
ERNST                   
1 60528U 24149BN  26131.16617795  .00009135  00000+0  24456-3 0  9997
2 60528  97.3803 214.6382 0007320  76.0573 284.1485 15.38229641 96580
TORO                    
1 60530U 24149BQ  26131.19331406  .00000793  00000+0  75232-4 0  9995
2 60530  97.6790 206.5542 0001590  94.6937 265.4466 14.96284076 94420
HYPSO-2                 
1 60531U 24149BR  26131.21224096  .00001642  00000+0  14181-3 0  9994
2 60531  97.6817 208.0143 0002069 113.7205 246.4235 14.98603058 94518
LEMU NGE                
1 60532U 24149BS  26131.16901249  .00001477  00000+0  14093-3 0  9999
2 60532  97.6847 206.8794 0002537 115.0080 245.1404 14.94798747 94426
LEMUR-2-STELLA          
1 60533U 24149BT  26131.20454508  .00006246  00000+0  37789-3 0  9992
2 60533  97.6730 213.5242 0001968 123.3005 236.8414 15.10992966 94917
SATELIOT_2              
1 60534U 24149BU  26131.17891029  .00000825  00000+0  78145-4 0  9991
2 60534  97.6835 206.8124 0001365 107.7956 252.3414 14.96224362 94431
NIGHTJAR                
1 60535U 24149BV  26131.20884927  .00001755  00000+0  15050-3 0  9993
2 60535  97.6833 208.4342 0001128 158.7125 201.4145 14.98797242137338
LEMUR-2-MARHISYAM       
1 60536U 24149BW  26131.17191499  .00007100  00000+0  43510-3 0  9997
2 60536  97.6873 213.9012 0001395 201.7383 158.3787 15.10482035 94890
SATELIOT_4              
1 60537U 24149BX  26131.19738288  .00001058  00000+0  98111-4 0  9997
2 60537  97.6738 206.3834 0002888 134.4340 225.7118 14.96529600 94443
ICEYE-X43               
1 60539U 24149BZ  26131.19915361  .00001624  00000+0  13624-3 0  9992
2 60539  97.6770 208.6749 0004301 205.7322 154.3687 14.99740580 94572
HAWK-10A                
1 60540U 24149CA  26131.19251209  .00000470  00000+0  46519-4 0  9996
2 60540  97.6897 207.7415 0003350 172.7205 187.4065 14.96396022 94459
UMBRA-09                
1 60541U 24149CB  26131.20556659  .00009140  00000+0  46703-3 0  9993
2 60541  97.6957 217.8155 0001465 136.0414 224.0935 15.16912239 95115
